{"fetched_at":"2026-03-29T16:36:15Z","count":15609,"tles":[{"name":"STARLINK-1423","line1":"1 45710U 20035BF  26087.87742998  .00064738  00000+0  90428-3 0  9997","line2":"2 45710  53.0496 289.2939 0006997 191.1209 168.9648 15.56253082322334","category":"Starlink"}]}